{
  "norad_id": 54070,
  "name": "STARLINK-5181",
  "history": [
    {
      "epoch": "2026-03-28T17:39:59.510016Z",
      "apogee_km": 540.4236570886533,
      "perigee_km": 538.9287176588623,
      "latitude_deg": 5.042964632676151e-06,
      "longitude_deg": 167.16327085802425,
      "height_km": 540.5604361652067,
      "semi_major_axis_km": 6917.8131873737575,
      "eccentricity": 0.00010805,
      "inclination_deg": 53.2173,
      "raan_deg": 258.3135,
      "arg_perigee_deg": 89.0926,
      "mean_anomaly_deg": 271.019,
      "mean_motion_rev_day": 15.08861986
    },
    {
      "epoch": "2026-03-30T11:00:03.907584Z",
      "apogee_km": 540.4828088487757,
      "perigee_km": 539.0799933554008,
      "latitude_deg": -1.065102404125086e-05,
      "longitude_deg": -102.28331292432637,
      "height_km": 540.5428926229761,
      "semi_major_axis_km": 6917.918401102088,
      "eccentricity": 0.00010139,
      "inclination_deg": 53.2194,
      "raan_deg": 250.5828,
      "arg_perigee_deg": 78.9094,
      "mean_anomaly_deg": 281.2012,
      "mean_motion_rev_day": 15.08827564
    },
    {
      "epoch": "2026-03-31T17:12:23.314464Z",
      "apogee_km": 540.6129878659976,
      "perigee_km": 538.9623710374808,
      "latitude_deg": 1.8192684447515685e-06,
      "longitude_deg": 157.74454465830695,
      "height_km": 540.3927727644719,
      "semi_major_axis_km": 6917.924679451739,
      "eccentricity": 0.0001193,
      "inclination_deg": 53.2167,
      "raan_deg": 244.932,
      "arg_perigee_deg": 69.3634,
      "mean_anomaly_deg": 290.7486,
      "mean_motion_rev_day": 15.0882551
    },
    {
      "epoch": "2026-04-01T17:03:10.729440Z",
      "apogee_km": 540.7060610021681,
      "perigee_km": 538.8230082044493,
      "latitude_deg": -4.976336990110911e-05,
      "longitude_deg": 154.60750405453814,
      "height_km": 540.3736250714418,
      "semi_major_axis_km": 6917.901534603308,
      "eccentricity": 0.0001361,
      "inclination_deg": 53.2189,
      "raan_deg": 240.4719,
      "arg_perigee_deg": 72.2605,
      "mean_anomaly_deg": 287.8535,
      "mean_motion_rev_day": 15.08833082
    },
    {
      "epoch": "2026-04-02T08:57:02.304576Z",
      "apogee_km": 540.7636649142569,
      "perigee_km": 538.7372773162178,
      "latitude_deg": 3.5583472508543544e-05,
      "longitude_deg": -87.48422196046337,
      "height_km": 540.3703249195803,
      "semi_major_axis_km": 6917.887471115237,
      "eccentricity": 0.00014646,
      "inclination_deg": 53.2181,
      "raan_deg": 237.4979,
      "arg_perigee_deg": 74.2009,
      "mean_anomaly_deg": 285.9145,
      "mean_motion_rev_day": 15.08837683
    },
    {
      "epoch": "2026-04-03T18:20:08.438784Z",
      "apogee_km": 540.8514563228428,
      "perigee_km": 538.6584845682128,
      "latitude_deg": 1.4127585433882645e-05,
      "longitude_deg": 124.12522850516136,
      "height_km": 540.4248097594887,
      "semi_major_axis_km": 6917.8919704455275,
      "eccentricity": 0.0001585,
      "inclination_deg": 53.2187,
      "raan_deg": 231.254,
      "arg_perigee_deg": 78.1193,
      "mean_anomaly_deg": 281.9977,
      "mean_motion_rev_day": 15.08836211
    },
    {
      "epoch": "2026-04-05T14:50:56.281344Z",
      "apogee_km": 540.5050857120123,
      "perigee_km": 539.0301884433866,
      "latitude_deg": -1.8156420084438077e-06,
      "longitude_deg": 166.27057472976364,
      "height_km": 540.5242439003052,
      "semi_major_axis_km": 6917.904637077699,
      "eccentricity": 0.0001066,
      "inclination_deg": 53.2155,
      "raan_deg": 222.9268,
      "arg_perigee_deg": 79.1098,
      "mean_anomaly_deg": 281.0014,
      "mean_motion_rev_day": 15.08832067
    },
    {
      "epoch": "2026-04-05T14:50:56.282208Z",
      "apogee_km": 540.5048781748728,
      "perigee_km": 539.0303959805251,
      "latitude_deg": 9.03826012056415e-07,
      "longitude_deg": 166.27057314202722,
      "height_km": 540.5242831091499,
      "semi_major_axis_km": 6917.904637077699,
      "eccentricity": 0.00010657,
      "inclination_deg": 53.2155,
      "raan_deg": 222.9268,
      "arg_perigee_deg": 79.1098,
      "mean_anomaly_deg": 281.0014,
      "mean_motion_rev_day": 15.08832067
    },
    {
      "epoch": "2026-04-07T14:32:30.332832Z",
      "apogee_km": 540.5854287040611,
      "perigee_km": 538.9306682084698,
      "latitude_deg": -1.3378405086543193e-05,
      "longitude_deg": 159.9982066194198,
      "height_km": 540.6454168513491,
      "semi_major_axis_km": 6917.895048456265,
      "eccentricity": 0.0001196,
      "inclination_deg": 53.217,
      "raan_deg": 214.005,
      "arg_perigee_deg": 89.4099,
      "mean_anomaly_deg": 270.703,
      "mean_motion_rev_day": 15.08835204
    },
    {
      "epoch": "2026-04-07T14:32:30.333696Z",
      "apogee_km": 540.5857054198632,
      "perigee_km": 538.9303914926677,
      "latitude_deg": 6.350506178742267e-05,
      "longitude_deg": 159.99826017489505,
      "height_km": 540.6454035487677,
      "semi_major_axis_km": 6917.895048456265,
      "eccentricity": 0.00011964,
      "inclination_deg": 53.217,
      "raan_deg": 214.005,
      "arg_perigee_deg": 89.41,
      "mean_anomaly_deg": 270.703,
      "mean_motion_rev_day": 15.08835204
    },
    {
      "epoch": "2026-04-08T14:23:17.364192Z",
      "apogee_km": 540.5582184121313,
      "perigee_km": 538.9370813232808,
      "latitude_deg": -2.0876509185335322e-05,
      "longitude_deg": 156.8628972878658,
      "height_km": 540.6072223763917,
      "semi_major_axis_km": 6917.884649867706,
      "eccentricity": 0.00011717,
      "inclination_deg": 53.2179,
      "raan_deg": 209.545,
      "arg_perigee_deg": 87.4226,
      "mean_anomaly_deg": 272.69,
      "mean_motion_rev_day": 15.08838606
    }
  ]
}